<?xml version="1.0" encoding="UTF-8"?>
<ndm xmlns:xsi="http://www.w3.org/2001/XMLSchema-instance" xsi:noNamespaceSchemaLocation="https://sanaregistry.org/r/ndmxml_unqualified/ndmxml-2.0.0-master-2.0.xsd">
<omm id="CCSDS_OMM_VERS" version="2.0">
<header><CREATION_DATE/><ORIGINATOR/></header><body><segment><metadata><OBJECT_NAME>ONEWEB-0379</OBJECT_NAME><OBJECT_ID>2021-090AC</OBJECT_ID><CENTER_NAME>EARTH</CENTER_NAME><REF_FRAME>TEME</REF_FRAME><TIME_SYSTEM>UTC</TIME_SYSTEM><MEAN_ELEMENT_THEORY>SGP4</MEAN_ELEMENT_THEORY></metadata><data><meanElements><EPOCH>2025-05-14T17:07:25.215456</EPOCH><MEAN_MOTION>13.14502487</MEAN_MOTION><ECCENTRICITY>.0001699</ECCENTRICITY><INCLINATION>87.9064</INCLINATION><RA_OF_ASC_NODE>8.9718</RA_OF_ASC_NODE><ARG_OF_PERICENTER>78.1377</ARG_OF_PERICENTER><MEAN_ANOMALY>281.9943</MEAN_ANOMALY></meanElements><tleParameters><EPHEMERIS_TYPE>0</EPHEMERIS_TYPE><CLASSIFICATION_TYPE>U</CLASSIFICATION_TYPE><NORAD_CAT_ID>49305</NORAD_CAT_ID><ELEMENT_SET_NO>999</ELEMENT_SET_NO><REV_AT_EPOCH>17521</REV_AT_EPOCH><BSTAR>.56593E-3</BSTAR><MEAN_MOTION_DOT>.223E-5</MEAN_MOTION_DOT><MEAN_MOTION_DDOT>0</MEAN_MOTION_DDOT></tleParameters></data></segment></body></omm>
<omm id="CCSDS_OMM_VERS" version="2.0">
<header><CREATION_DATE/><ORIGINATOR/></header><body><segment><metadata><OBJECT_NAME>ONEWEB-0380</OBJECT_NAME><OBJECT_ID>2021-090AD</OBJECT_ID><CENTER_NAME>EARTH</CENTER_NAME><REF_FRAME>TEME</REF_FRAME><TIME_SYSTEM>UTC</TIME_SYSTEM><MEAN_ELEMENT_THEORY>SGP4</MEAN_ELEMENT_THEORY></metadata><data><meanElements><EPOCH>2025-05-14T18:25:44.157216</EPOCH><MEAN_MOTION>13.19724482</MEAN_MOTION><ECCENTRICITY>.0002064</ECCENTRICITY><INCLINATION>87.9250</INCLINATION><RA_OF_ASC_NODE>24.1776</RA_OF_ASC_NODE><ARG_OF_PERICENTER>80.4419</ARG_OF_PERICENTER><MEAN_ANOMALY>279.6947</MEAN_ANOMALY></meanElements><tleParameters><EPHEMERIS_TYPE>0</EPHEMERIS_TYPE><CLASSIFICATION_TYPE>U</CLASSIFICATION_TYPE><NORAD_CAT_ID>49306</NORAD_CAT_ID><ELEMENT_SET_NO>999</ELEMENT_SET_NO><REV_AT_EPOCH>17387</REV_AT_EPOCH><BSTAR>-.1628E-4</BSTAR><MEAN_MOTION_DOT>.6E-7</MEAN_MOTION_DOT><MEAN_MOTION_DDOT>0</MEAN_MOTION_DDOT></tleParameters></data></segment></body></omm>
<omm id="CCSDS_OMM_VERS" version="2.0">
<header><CREATION_DATE/><ORIGINATOR/></header><body><segment><metadata><OBJECT_NAME>ONEWEB-0381</OBJECT_NAME><OBJECT_ID>2021-090AE</OBJECT_ID><CENTER_NAME>EARTH</CENTER_NAME><REF_FRAME>TEME</REF_FRAME><TIME_SYSTEM>UTC</TIME_SYSTEM><MEAN_ELEMENT_THEORY>SGP4</MEAN_ELEMENT_THEORY></metadata><data><meanElements><EPOCH>2025-05-14T14:26:38.570784</EPOCH><MEAN_MOTION>13.20769137</MEAN_MOTION><ECCENTRICITY>.0002036</ECCENTRICITY><INCLINATION>87.9281</INCLINATION><RA_OF_ASC_NODE>353.8122</RA_OF_ASC_NODE><ARG_OF_PERICENTER>79.6583</ARG_OF_PERICENTER><MEAN_ANOMALY>280.4780</MEAN_ANOMALY></meanElements><tleParameters><EPHEMERIS_TYPE>0</EPHEMERIS_TYPE><CLASSIFICATION_TYPE>U</CLASSIFICATION_TYPE><NORAD_CAT_ID>49307</NORAD_CAT_ID><ELEMENT_SET_NO>999</ELEMENT_SET_NO><REV_AT_EPOCH>17721</REV_AT_EPOCH><BSTAR>-.649E-5</BSTAR><MEAN_MOTION_DOT>.1E-6</MEAN_MOTION_DOT><MEAN_MOTION_DDOT>0</MEAN_MOTION_DDOT></tleParameters></data></segment></body></omm>
<omm id="CCSDS_OMM_VERS" version="2.0">
<header><CREATION_DATE/><ORIGINATOR/></header><body><segment><metadata><OBJECT_NAME>ONEWEB-0382</OBJECT_NAME><OBJECT_ID>2021-090AF</OBJECT_ID><CENTER_NAME>EARTH</CENTER_NAME><REF_FRAME>TEME</REF_FRAME><TIME_SYSTEM>UTC</TIME_SYSTEM><MEAN_ELEMENT_THEORY>SGP4</MEAN_ELEMENT_THEORY></metadata><data><meanElements><EPOCH>2025-05-14T15:57:33.514272</EPOCH><MEAN_MOTION>13.20773032</MEAN_MOTION><ECCENTRICITY>.0001947</ECCENTRICITY><INCLINATION>87.9280</INCLINATION><RA_OF_ASC_NODE>353.7942</RA_OF_ASC_NODE><ARG_OF_PERICENTER>74.3448</ARG_OF_PERICENTER><MEAN_ANOMALY>285.7900</MEAN_ANOMALY></meanElements><tleParameters><EPHEMERIS_TYPE>0</EPHEMERIS_TYPE><CLASSIFICATION_TYPE>U</CLASSIFICATION_TYPE><NORAD_CAT_ID>49308</NORAD_CAT_ID><ELEMENT_SET_NO>999</ELEMENT_SET_NO><REV_AT_EPOCH>17721</REV_AT_EPOCH><BSTAR>-.12316E-4</BSTAR><MEAN_MOTION_DOT>.8E-7</MEAN_MOTION_DOT><MEAN_MOTION_DDOT>0</MEAN_MOTION_DDOT></tleParameters></data></segment></body></omm>
<omm id="CCSDS_OMM_VERS" version="2.0">
<header><CREATION_DATE/><ORIGINATOR/></header><body><segment><metadata><OBJECT_NAME>ONEWEB-0383</OBJECT_NAME><OBJECT_ID>2021-090AG</OBJECT_ID><CENTER_NAME>EARTH</CENTER_NAME><REF_FRAME>TEME</REF_FRAME><TIME_SYSTEM>UTC</TIME_SYSTEM><MEAN_ELEMENT_THEORY>SGP4</MEAN_ELEMENT_THEORY></metadata><data><meanElements><EPOCH>2025-05-14T16:58:16.749984</EPOCH><MEAN_MOTION>13.14501227</MEAN_MOTION><ECCENTRICITY>.0001702</ECCENTRICITY><INCLINATION>87.9061</INCLINATION><RA_OF_ASC_NODE>8.9542</RA_OF_ASC_NODE><ARG_OF_PERICENTER>76.6225</ARG_OF_PERICENTER><MEAN_ANOMALY>283.5095</MEAN_ANOMALY></meanElements><tleParameters><EPHEMERIS_TYPE>0</EPHEMERIS_TYPE><CLASSIFICATION_TYPE>U</CLASSIFICATION_TYPE><NORAD_CAT_ID>49309</NORAD_CAT_ID><ELEMENT_SET_NO>999</ELEMENT_SET_NO><REV_AT_EPOCH>17524</REV_AT_EPOCH><BSTAR>.60187E-3</BSTAR><MEAN_MOTION_DOT>.236E-5</MEAN_MOTION_DOT><MEAN_MOTION_DDOT>0</MEAN_MOTION_DDOT></tleParameters></data></segment></body></omm>
<omm id="CCSDS_OMM_VERS" version="2.0">
<header><CREATION_DATE/><ORIGINATOR/></header><body><segment><metadata><OBJECT_NAME>ONEWEB-0384</OBJECT_NAME><OBJECT_ID>2021-090AH</OBJECT_ID><CENTER_NAME>EARTH</CENTER_NAME><REF_FRAME>TEME</REF_FRAME><TIME_SYSTEM>UTC</TIME_SYSTEM><MEAN_ELEMENT_THEORY>SGP4</MEAN_ELEMENT_THEORY></metadata><data><meanElements><EPOCH>2025-05-14T21:19:39.890496</EPOCH><MEAN_MOTION>13.20783293</MEAN_MOTION><ECCENTRICITY>.0001985</ECCENTRICITY><INCLINATION>87.9282</INCLINATION><RA_OF_ASC_NODE>353.7662</RA_OF_ASC_NODE><ARG_OF_PERICENTER>69.0655</ARG_OF_PERICENTER><MEAN_ANOMALY>291.0690</MEAN_ANOMALY></meanElements><tleParameters><EPHEMERIS_TYPE>0</EPHEMERIS_TYPE><CLASSIFICATION_TYPE>U</CLASSIFICATION_TYPE><NORAD_CAT_ID>49310</NORAD_CAT_ID><ELEMENT_SET_NO>999</ELEMENT_SET_NO><REV_AT_EPOCH>17725</REV_AT_EPOCH><BSTAR>.49458E-4</BSTAR><MEAN_MOTION_DOT>.33E-6</MEAN_MOTION_DOT><MEAN_MOTION_DDOT>0</MEAN_MOTION_DDOT></tleParameters></data></segment></body></omm>
<omm id="CCSDS_OMM_VERS" version="2.0">
<header><CREATION_DATE/><ORIGINATOR/></header><body><segment><metadata><OBJECT_NAME>ONEWEB-0385</OBJECT_NAME><OBJECT_ID>2021-090AJ</OBJECT_ID><CENTER_NAME>EARTH</CENTER_NAME><REF_FRAME>TEME</REF_FRAME><TIME_SYSTEM>UTC</TIME_SYSTEM><MEAN_ELEMENT_THEORY>SGP4</MEAN_ELEMENT_THEORY></metadata><data><meanElements><EPOCH>2025-05-14T21:13:27.223104</EPOCH><MEAN_MOTION>13.20769184</MEAN_MOTION><ECCENTRICITY>.0001853</ECCENTRICITY><INCLINATION>87.9281</INCLINATION><RA_OF_ASC_NODE>353.7681</RA_OF_ASC_NODE><ARG_OF_PERICENTER>79.6972</ARG_OF_PERICENTER><MEAN_ANOMALY>280.4371</MEAN_ANOMALY></meanElements><tleParameters><EPHEMERIS_TYPE>0</EPHEMERIS_TYPE><CLASSIFICATION_TYPE>U</CLASSIFICATION_TYPE><NORAD_CAT_ID>49311</NORAD_CAT_ID><ELEMENT_SET_NO>999</ELEMENT_SET_NO><REV_AT_EPOCH>17722</REV_AT_EPOCH><BSTAR>.99766E-4</BSTAR><MEAN_MOTION_DOT>.54E-6</MEAN_MOTION_DOT><MEAN_MOTION_DDOT>0</MEAN_MOTION_DDOT></tleParameters></data></segment></body></omm>
<omm id="CCSDS_OMM_VERS" version="2.0">
<header><CREATION_DATE/><ORIGINATOR/></header><body><segment><metadata><OBJECT_NAME>ONEWEB-0386</OBJECT_NAME><OBJECT_ID>2021-090AK</OBJECT_ID><CENTER_NAME>EARTH</CENTER_NAME><REF_FRAME>TEME</REF_FRAME><TIME_SYSTEM>UTC</TIME_SYSTEM><MEAN_ELEMENT_THEORY>SGP4</MEAN_ELEMENT_THEORY></metadata><data><meanElements><EPOCH>2025-05-14T14:22:05.797344</EPOCH><MEAN_MOTION>13.20773793</MEAN_MOTION><ECCENTRICITY>.0001829</ECCENTRICITY><INCLINATION>87.9275</INCLINATION><RA_OF_ASC_NODE>353.7973</RA_OF_ASC_NODE><ARG_OF_PERICENTER>74.7678</ARG_OF_PERICENTER><MEAN_ANOMALY>285.3657</MEAN_ANOMALY></meanElements><tleParameters><EPHEMERIS_TYPE>0</EPHEMERIS_TYPE><CLASSIFICATION_TYPE>U</CLASSIFICATION_TYPE><NORAD_CAT_ID>49312</NORAD_CAT_ID><ELEMENT_SET_NO>999</ELEMENT_SET_NO><REV_AT_EPOCH>17720</REV_AT_EPOCH><BSTAR>-.45707E-4</BSTAR><MEAN_MOTION_DOT>-.6E-7</MEAN_MOTION_DOT><MEAN_MOTION_DDOT>0</MEAN_MOTION_DDOT></tleParameters></data></segment></body></omm>

</ndm>
