ONEWEB-0379             
1 49305U 21090AC  25134.71348629  .00000223  00000+0  56593-3 0  9995
2 49305  87.9064   8.9718 0001699  78.1377 281.9943 13.14502487175215
ONEWEB-0380             
1 49306U 21090AD  25134.76787219  .00000006  00000+0 -16280-4 0  9993
2 49306  87.9250  24.1776 0002064  80.4419 279.6947 13.19724482173871
ONEWEB-0381             
1 49307U 21090AE  25134.60183531  .00000010  00000+0 -64900-5 0  9992
2 49307  87.9281 353.8122 0002036  79.6583 280.4780 13.20769137177219
ONEWEB-0382             
1 49308U 21090AF  25134.66497123  .00000008  00000+0 -12316-4 0  9994
2 49308  87.9280 353.7942 0001947  74.3448 285.7900 13.20773032177211
ONEWEB-0383             
1 49309U 21090AG  25134.70713831  .00000236  00000+0  60187-3 0  9997
2 49309  87.9061   8.9542 0001702  76.6225 283.5095 13.14501227175241
ONEWEB-0384             
1 49310U 21090AH  25134.88865614  .00000033  00000+0  49458-4 0  9999
2 49310  87.9282 353.7662 0001985  69.0655 291.0690 13.20783293177258
ONEWEB-0385             
1 49311U 21090AJ  25134.88434286  .00000054  00000+0  99766-4 0  9997
2 49311  87.9281 353.7681 0001853  79.6972 280.4371 13.20769184177220
ONEWEB-0386             
1 49312U 21090AK  25134.59867821 -.00000006  00000+0 -45707-4 0  9996
2 49312  87.9275 353.7973 0001829  74.7678 285.3657 13.20773793177200
